[{"OBJECT_NAME":"TIANQI-6","OBJECT_ID":"2020-076D","EPOCH":"2026-03-09T22:50:24.728640","MEAN_MOTION":15.06417552,"ECCENTRICITY":0.00106023,"INCLINATION":34.9994,"RA_OF_ASC_NODE":297.1791,"ARG_OF_PERICENTER":9.4595,"MEAN_ANOMALY":350.6312,"EPHEMERIS_TYPE":0,"CLASSIFICATION_TYPE":"U","NORAD_CAT_ID":46810,"ELEMENT_SET_NO":999,"REV_AT_EPOCH":29360,"BSTAR":0.00037023286,"MEAN_MOTION_DOT":5.552e-5,"MEAN_MOTION_DDOT":0},{"OBJECT_NAME":"STARLINK-3800","OBJECT_ID":"2022-045BA","EPOCH":"2026-03-09T14:36:47.659680","MEAN_MOTION":15.08838707,"ECCENTRICITY":0.0001345,"INCLINATION":53.2173,"RA_OF_ASC_NODE":189.4867,"ARG_OF_PERICENTER":92.8265,"MEAN_ANOMALY":267.2881,"EPHEMERIS_TYPE":0,"CLASSIFICATION_TYPE":"U","NORAD_CAT_ID":52379,"ELEMENT_SET_NO":999,"REV_AT_EPOCH":21591,"BSTAR":1.4325e-5,"MEAN_MOTION_DOT":-6.0e-7,"MEAN_MOTION_DDOT":0}]
